{
  "type": "FeatureCollection",
  "features": [
    {
      "type": "Feature",
      "properties": {
        "norad_id": 44333,
        "name": "AT&T T-16",
        "group": "intelsat",
        "lat": -0.029616645353201614,
        "lon": -84.53561856641024,
        "alt_km": 35788.96716693453,
        "timestamp": "2025-12-22T18:58:53.088849+00:00",
        "meta_object_name": "AT&T T-16",
        "meta_object_id": "2019-034A",
        "meta_epoch": "2025-12-22T06:15:17.426304",
        "meta_mean_motion": 1.00272128,
        "meta_eccentricity": 0.00010626,
        "meta_inclination": 0.0194,
        "meta_ra_of_asc_node": 60.9722,
        "meta_arg_of_pericenter": 83.2069,
        "meta_mean_anomaly": 299.8613,
        "meta_ephemeris_type": 0,
        "meta_classification_type": "U",
        "meta_norad_cat_id": 44333,
        "meta_element_set_no": 999,
        "meta_rev_at_epoch": 2386,
        "meta_bstar": 0,
        "meta_mean_motion_dot": -9.4e-07,
        "meta_mean_motion_ddot": 0,
        "tle_line1": "1 44333U 19034A   25356.26061836 -.00000094  00000+0  00000+0 0  9999",
        "tle_line2": "2 44333   0.0194  60.9722 0001062  83.2069 299.8613  1.00272128 23866"
      },
      "geometry": {
        "type": "Point",
        "coordinates": [
          -84.53561856641024,
          -0.029616645353201614
        ]
      }
    },
    {
      "type": "Feature",
      "properties": {
        "norad_id": 44476,
        "name": "INTELSAT 39 (IS-39)",
        "group": "intelsat",
        "lat": 0.02223116288850265,
        "lon": 78.25274428364678,
        "alt_km": 35783.70581877072,
        "timestamp": "2025-12-22T18:58:53.088860+00:00",
        "meta_object_name": "INTELSAT 39 (IS-39)",
        "meta_object_id": "2019-049B",
        "meta_epoch": "2025-12-21T20:34:53.577984",
        "meta_mean_motion": 1.00273614,
        "meta_eccentricity": 8.236e-05,
        "meta_inclination": 0.0088,
        "meta_ra_of_asc_node": 313.2176,
        "meta_arg_of_pericenter": 184.0744,
        "meta_mean_anomaly": 324.0513,
        "meta_ephemeris_type": 0,
        "meta_classification_type": "U",
        "meta_norad_cat_id": 44476,
        "meta_element_set_no": 999,
        "meta_rev_at_epoch": 2335,
        "meta_bstar": 0,
        "meta_mean_motion_dot": 5.5e-07,
        "meta_mean_motion_ddot": 0,
        "tle_line1": "1 44476U 19049B   25355.85756456  .00000055  00000+0  00000+0 0  9992",
        "tle_line2": "2 44476   0.0088 313.2176 0000823 184.0744 324.0513  1.00273614 23352"
      },
      "geometry": {
        "type": "Point",
        "coordinates": [
          78.25274428364678,
          0.02223116288850265
        ]
      }
    },
    {
      "type": "Feature",
      "properties": {
        "norad_id": 46114,
        "name": "GALAXY 30 (G-30)",
        "group": "intelsat",
        "lat": -0.038392100901561685,
        "lon": -108.6968543473326,
        "alt_km": 35778.369647450396,
        "timestamp": "2025-12-22T18:58:53.088871+00:00",
        "meta_object_name": "GALAXY 30 (G-30)",
        "meta_object_id": "2020-056C",
        "meta_epoch": "2025-12-22T05:43:20.885088",
        "meta_mean_motion": 1.00270047,
        "meta_eccentricity": 0.00020003,
        "meta_inclination": 0.0177,
        "meta_ra_of_asc_node": 10.447,
        "meta_arg_of_pericenter": 256.2295,
        "meta_mean_anomaly": 145.2144,
        "meta_ephemeris_type": 0,
        "meta_classification_type": "U",
        "meta_norad_cat_id": 46114,
        "meta_element_set_no": 999,
        "meta_rev_at_epoch": 1951,
        "meta_bstar": 0,
        "meta_mean_motion_dot": 5.9e-07,
        "meta_mean_motion_ddot": 0,
        "tle_line1": "1 46114U 20056C   25356.23843617  .00000059  00000+0  00000+0 0  9996",
        "tle_line2": "2 46114   0.0177  10.4470 0002000 256.2295 145.2144  1.00270047 19510"
      },
      "geometry": {
        "type": "Point",
        "coordinates": [
          -108.6968543473326,
          -0.038392100901561685
        ]
      }
    },
    {
      "type": "Feature",
      "properties": {
        "norad_id": 54026,
        "name": "GALAXY 33 (G-33)",
        "group": "intelsat",
        "lat": -0.029748387080807435,
        "lon": -116.69850326120061,
        "alt_km": 35779.83798525557,
        "timestamp": "2025-12-22T18:58:53.088883+00:00",
        "meta_object_name": "GALAXY 33 (G-33)",
        "meta_object_id": "2022-128A",
        "meta_epoch": "2025-12-22T06:22:38.830080",
        "meta_mean_motion": 1.00271718,
        "meta_eccentricity": 0.00015709,
        "meta_inclination": 0.0189,
        "meta_ra_of_asc_node": 304.338,
        "meta_arg_of_pericenter": 319.6169,
        "meta_mean_anomaly": 149.783,
        "meta_ephemeris_type": 0,
        "meta_classification_type": "U",
        "meta_norad_cat_id": 54026,
        "meta_element_set_no": 999,
        "meta_rev_at_epoch": 1196,
        "meta_bstar": 0,
        "meta_mean_motion_dot": 1.01e-06,
        "meta_mean_motion_ddot": 0,
        "tle_line1": "1 54026U 22128A   25356.26572720  .00000101  00000+0  00000+0 0  9994",
        "tle_line2": "2 54026   0.0189 304.3380 0001570 319.6169 149.7830  1.00271718 11962"
      },
      "geometry": {
        "type": "Point",
        "coordinates": [
          -116.69850326120061,
          -0.029748387080807435
        ]
      }
    },
    {
      "type": "Feature",
      "properties": {
        "norad_id": 54027,
        "name": "GALAXY 34 (G-34)",
        "group": "intelsat",
        "lat": -0.044912532188855825,
        "lon": -112.65742185429734,
        "alt_km": 35779.30079500938,
        "timestamp": "2025-12-22T18:58:53.088894+00:00",
        "meta_object_name": "GALAXY 34 (G-34)",
        "meta_object_id": "2022-128B",
        "meta_epoch": "2025-12-22T06:22:38.830080",
        "meta_mean_motion": 1.00268869,
        "meta_eccentricity": 0.0001866,
        "meta_inclination": 0.0237,
        "meta_ra_of_asc_node": 338.9031,
        "meta_arg_of_pericenter": 285.2574,
        "meta_mean_anomaly": 153.6238,
        "meta_ephemeris_type": 0,
        "meta_classification_type": "U",
        "meta_norad_cat_id": 54027,
        "meta_element_set_no": 999,
        "meta_rev_at_epoch": 1213,
        "meta_bstar": 0,
        "meta_mean_motion_dot": 0,
        "meta_mean_motion_ddot": 0,
        "tle_line1": "1 54027U 22128B   25356.26572720  .00000000  00000+0  00000+0 0  9993",
        "tle_line2": "2 54027   0.0237 338.9031 0001866 285.2574 153.6238  1.00268869 12138"
      },
      "geometry": {
        "type": "Point",
        "coordinates": [
          -112.65742185429734,
          -0.044912532188855825
        ]
      }
    },
    {
      "type": "Feature",
      "properties": {
        "norad_id": 54243,
        "name": "GALAXY 31 (G-31)",
        "group": "intelsat",
        "lat": -0.01653189699053718,
        "lon": -104.70643016081608,
        "alt_km": 35780.899747331685,
        "timestamp": "2025-12-22T18:58:53.088906+00:00",
        "meta_object_name": "GALAXY 31 (G-31)",
        "meta_object_id": "2022-153A",
        "meta_epoch": "2025-12-22T05:14:20.597280",
        "meta_mean_motion": 1.00271097,
        "meta_eccentricity": 0.00014152,
        "meta_inclination": 0.0307,
        "meta_ra_of_asc_node": 249.2278,
        "meta_arg_of_pericenter": 33.0199,
        "meta_mean_anomaly": 126.3618,
        "meta_ephemeris_type": 0,
        "meta_classification_type": "U",
        "meta_norad_cat_id": 54243,
        "meta_element_set_no": 999,
        "meta_rev_at_epoch": 535,
        "meta_bstar": 0,
        "meta_mean_motion_dot": 3.5e-07,
        "meta_mean_motion_ddot": 0,
        "tle_line1": "1 54243U 22153A   25356.21829395  .00000035  00000+0  00000+0 0  9997",
        "tle_line2": "2 54243   0.0307 249.2278 0001415  33.0199 126.3618  1.00271097  5357"
      },
      "geometry": {
        "type": "Point",
        "coordinates": [
          -104.70643016081608,
          -0.01653189699053718
        ]
      }
    },
    {
      "type": "Feature",
      "properties": {
        "norad_id": 54244,
        "name": "GALAXY 32 (G-32)",
        "group": "intelsat",
        "lat": -0.03349286604619618,
        "lon": -74.71320592618962,
        "alt_km": 35779.67194441126,
        "timestamp": "2025-12-22T18:58:53.088917+00:00",
        "meta_object_name": "GALAXY 32 (G-32)",
        "meta_object_id": "2022-153B",
        "meta_epoch": "2025-12-22T02:27:39.626208",
        "meta_mean_motion": 1.00270271,
        "meta_eccentricity": 0.00019789,
        "meta_inclination": 0.0106,
        "meta_ra_of_asc_node": 352.1595,
        "meta_arg_of_pericenter": 327.8502,
        "meta_mean_anomaly": 76.8163,
        "meta_ephemeris_type": 0,
        "meta_classification_type": "U",
        "meta_norad_cat_id": 54244,
        "meta_element_set_no": 999,
        "meta_rev_at_epoch": 1136,
        "meta_bstar": 0,
        "meta_mean_motion_dot": -1.52e-06,
        "meta_mean_motion_ddot": 0,
        "tle_line1": "1 54244U 22153B   25356.10254197 -.00000152  00000+0  00000+0 0  9999",
        "tle_line2": "2 54244   0.0106 352.1595 0001978 327.8502  76.8163  1.00270271 11362"
      },
      "geometry": {
        "type": "Point",
        "coordinates": [
          -74.71320592618962,
          -0.03349286604619618
        ]
      }
    }
  ]
}